[
    {
        "Altitude(m)": 604969.089096177,
        "Argument of Periapsis(deg)": 0.0,
        "Eccentricity": 0.0,
        "Inclination(deg)": 60.0,
        "Latitude(deg)": -0.09262717262610708,
        "Longitude(deg)": 179.97752745399077,
        "Mean Anomaly(deg)": 0.0,
        "RAAN(deg)": 280.0,
        "Satellite Name": "Test1 1232",
        "Satellite Number": 1232,
        "Semi-Major Axis(m)": 6980739.136638005,
        "Time(s)": 0
    },
    {
        "Altitude(m)": 604900.0288243272,
        "Argument of Periapsis(deg)": 0.00010418945913296404,
        "Eccentricity": 0.0,
        "Inclination(deg)": 60.0,
        "Latitude(deg)": 0.4477982799441188,
        "Longitude(deg)": -179.75434863492524,
        "Mean Anomaly(deg)": 0.620106145461853,
        "RAAN(deg)": 279.99957995086027,
        "Satellite Name": "Test1 1232",
        "Satellite Number": 1232,
        "Semi-Major Axis(m)": 6980739.136638005,
        "Time(s)": 10
    }
]